{
  "type": "FeatureCollection",
  "features": [
    {
      "type": "Feature",
      "properties": {
        "norad_id": 29975,
        "name": "FENGYUN 1C DEB",
        "group": "fengyun-1c-debris",
        "lat": -27.650347229980582,
        "lon": 42.34212255810679,
        "alt_km": 827.0954647079516,
        "timestamp": "2025-12-22T04:03:39.441953+00:00",
        "meta_object_name": "FENGYUN 1C DEB",
        "meta_object_id": "1999-025KZ",
        "meta_epoch": "2025-12-21T16:46:35.200128",
        "meta_mean_motion": 13.98027621,
        "meta_eccentricity": 0.0113144,
        "meta_inclination": 99.3378,
        "meta_ra_of_asc_node": 36.9188,
        "meta_arg_of_pericenter": 349.4015,
        "meta_mean_anomaly": 137.8802,
        "meta_ephemeris_type": 0,
        "meta_classification_type": "U",
        "meta_norad_cat_id": 29975,
        "meta_element_set_no": 999,
        "meta_rev_at_epoch": 96562,
        "meta_bstar": 0.00010448,
        "meta_mean_motion_dot": 1.1e-06,
        "meta_mean_motion_ddot": 0,
        "tle_line1": "1 29975U 99025KZ  25355.69901852  .00000110  00000+0  10448-3 0  9998",
        "tle_line2": "2 29975  99.3378  36.9188 0113144 349.4015 137.8802 13.98027621965624"
      },
      "geometry": {
        "type": "Point",
        "coordinates": [
          42.34212255810679,
          -27.650347229980582
        ]
      }
    },
    {
      "type": "Feature",
      "properties": {
        "norad_id": 29976,
        "name": "FENGYUN 1C DEB",
        "group": "fengyun-1c-debris",
        "lat": 30.65339525603566,
        "lon": 178.56421003544045,
        "alt_km": 810.6600508518477,
        "timestamp": "2025-12-22T04:03:39.441963+00:00",
        "meta_object_name": "FENGYUN 1C DEB",
        "meta_object_id": "1999-025LA",
        "meta_epoch": "2025-12-20T22:26:15.770400",
        "meta_mean_motion": 13.98119452,
        "meta_eccentricity": 0.0267453,
        "meta_inclination": 98.9187,
        "meta_ra_of_asc_node": 352.0233,
        "meta_arg_of_pericenter": 216.7731,
        "meta_mean_anomaly": 205.6875,
        "meta_ephemeris_type": 0,
        "meta_classification_type": "U",
        "meta_norad_cat_id": 29976,
        "meta_element_set_no": 999,
        "meta_rev_at_epoch": 96451,
        "meta_bstar": 0.00039759,
        "meta_mean_motion_dot": 7.23e-06,
        "meta_mean_motion_ddot": 0,
        "tle_line1": "1 29976U 99025LA  25354.93490475  .00000723  00000+0  39759-3 0  9995",
        "tle_line2": "2 29976  98.9187 352.0233 0267453 216.7731 205.6875 13.98119452964510"
      },
      "geometry": {
        "type": "Point",
        "coordinates": [
          178.56421003544045,
          30.65339525603566
        ]
      }
    },
    {
      "type": "Feature",
      "properties": {
        "norad_id": 29977,
        "name": "FENGYUN 1C DEB",
        "group": "fengyun-1c-debris",
        "lat": -38.355674299479944,
        "lon": -135.76542256406555,
        "alt_km": 883.00755639618,
        "timestamp": "2025-12-22T04:03:39.441974+00:00",
        "meta_object_name": "FENGYUN 1C DEB",
        "meta_object_id": "1999-025LB",
        "meta_epoch": "2025-12-15T02:05:24.079200",
        "meta_mean_motion": 14.0509794,
        "meta_eccentricity": 0.0128352,
        "meta_inclination": 98.3968,
        "meta_ra_of_asc_node": 210.9629,
        "meta_arg_of_pericenter": 250.2626,
        "meta_mean_anomaly": 265.3537,
        "meta_ephemeris_type": 0,
        "meta_classification_type": "U",
        "meta_norad_cat_id": 29977,
        "meta_element_set_no": 999,
        "meta_rev_at_epoch": 96393,
        "meta_bstar": 0.001211704,
        "meta_mean_motion_dot": 2.064e-05,
        "meta_mean_motion_ddot": 0,
        "tle_line1": "1 29977U 99025LB  25349.08708425  .00002064  00000+0  12117-2 0  9991",
        "tle_line2": "2 29977  98.3968 210.9629 0128352 250.2626 265.3537 14.05097940963932"
      },
      "geometry": {
        "type": "Point",
        "coordinates": [
          -135.76542256406555,
          -38.355674299479944
        ]
      }
    },
    {
      "type": "Feature",
      "properties": {
        "norad_id": 29978,
        "name": "FENGYUN 1C DEB",
        "group": "fengyun-1c-debris",
        "lat": 80.49428654102827,
        "lon": -61.194934875876406,
        "alt_km": 877.7198335764951,
        "timestamp": "2025-12-22T04:03:39.441984+00:00",
        "meta_object_name": "FENGYUN 1C DEB",
        "meta_object_id": "1999-025LC",
        "meta_epoch": "2025-12-21T17:53:14.421120",
        "meta_mean_motion": 13.95910563,
        "meta_eccentricity": 0.0076482,
        "meta_inclination": 99.06,
        "meta_ra_of_asc_node": 46.0444,
        "meta_arg_of_pericenter": 27.8016,
        "meta_mean_anomaly": 95.2061,
        "meta_ephemeris_type": 0,
        "meta_classification_type": "U",
        "meta_norad_cat_id": 29978,
        "meta_element_set_no": 999,
        "meta_rev_at_epoch": 96442,
        "meta_bstar": 0.00024169,
        "meta_mean_motion_dot": 2.95e-06,
        "meta_mean_motion_ddot": 0,
        "tle_line1": "1 29978U 99025LC  25355.74530580  .00000295  00000+0  24169-3 0  9992",
        "tle_line2": "2 29978  99.0600  46.0444 0076482  27.8016  95.2061 13.95910563964424"
      },
      "geometry": {
        "type": "Point",
        "coordinates": [
          -61.194934875876406,
          80.49428654102827
        ]
      }
    },
    {
      "type": "Feature",
      "properties": {
        "norad_id": 29979,
        "name": "FENGYUN 1C DEB",
        "group": "fengyun-1c-debris",
        "lat": 44.33553266374256,
        "lon": 10.688291267286225,
        "alt_km": 801.0743918733306,
        "timestamp": "2025-12-22T04:03:39.441994+00:00",
        "meta_object_name": "FENGYUN 1C DEB",
        "meta_object_id": "1999-025LD",
        "meta_epoch": "2025-12-21T20:15:20.691936",
        "meta_mean_motion": 14.2598136,
        "meta_eccentricity": 0.010798,
        "meta_inclination": 98.3695,
        "meta_ra_of_asc_node": 18.6478,
        "meta_arg_of_pericenter": 136.3498,
        "meta_mean_anomaly": 41.3501,
        "meta_ephemeris_type": 0,
        "meta_classification_type": "U",
        "meta_norad_cat_id": 29979,
        "meta_element_set_no": 999,
        "meta_rev_at_epoch": 98203,
        "meta_bstar": 0.00032045,
        "meta_mean_motion_dot": 7.72e-06,
        "meta_mean_motion_ddot": 0,
        "tle_line1": "1 29979U 99025LD  25355.84398949  .00000772  00000+0  32045-3 0  9997",
        "tle_line2": "2 29979  98.3695  18.6478 0107980 136.3498  41.3501 14.25981360982036"
      },
      "geometry": {
        "type": "Point",
        "coordinates": [
          10.688291267286225,
          44.33553266374256
        ]
      }
    },
    {
      "type": "Feature",
      "properties": {
        "norad_id": 29980,
        "name": "FENGYUN 1C DEB",
        "group": "fengyun-1c-debris",
        "lat": 29.257702234704887,
        "lon": 159.97355957470674,
        "alt_km": 932.4401213177525,
        "timestamp": "2025-12-22T04:03:39.442005+00:00",
        "meta_object_name": "FENGYUN 1C DEB",
        "meta_object_id": "1999-025LE",
        "meta_epoch": "2025-12-21T17:46:11.067168",
        "meta_mean_motion": 14.06322342,
        "meta_eccentricity": 0.0087095,
        "meta_inclination": 98.5518,
        "meta_ra_of_asc_node": 164.4038,
        "meta_arg_of_pericenter": 222.1147,
        "meta_mean_anomaly": 157.7045,
        "meta_ephemeris_type": 0,
        "meta_classification_type": "U",
        "meta_norad_cat_id": 29980,
        "meta_element_set_no": 999,
        "meta_rev_at_epoch": 97119,
        "meta_bstar": 9.1382e-05,
        "meta_mean_motion_dot": 1.15e-06,
        "meta_mean_motion_ddot": 0,
        "tle_line1": "1 29980U 99025LE  25355.74040587  .00000115  00000+0  91382-4 0  9991",
        "tle_line2": "2 29980  98.5518 164.4038 0087095 222.1147 157.7045 14.06322342971193"
      },
      "geometry": {
        "type": "Point",
        "coordinates": [
          159.97355957470674,
          29.257702234704887
        ]
      }
    },
    {
      "type": "Feature",
      "properties": {
        "norad_id": 29982,
        "name": "FENGYUN 1C DEB",
        "group": "fengyun-1c-debris",
        "lat": -28.443041985035414,
        "lon": -176.03356626969006,
        "alt_km": 648.8691871989395,
        "timestamp": "2025-12-22T04:03:39.442015+00:00",
        "meta_object_name": "FENGYUN 1C DEB",
        "meta_object_id": "1999-025LG",
        "meta_epoch": "2025-12-21T18:27:45.270144",
        "meta_mean_motion": 14.66947952,
        "meta_eccentricity": 0.0121668,
        "meta_inclination": 99.4011,
        "meta_ra_of_asc_node": 178.3595,
        "meta_arg_of_pericenter": 260.6823,
        "meta_mean_anomaly": 118.4068,
        "meta_ephemeris_type": 0,
        "meta_classification_type": "U",
        "meta_norad_cat_id": 29982,
        "meta_element_set_no": 999,
        "meta_rev_at_epoch": 416,
        "meta_bstar": 0.00059721,
        "meta_mean_motion_dot": 3.664e-05,
        "meta_mean_motion_ddot": 0,
        "tle_line1": "1 29982U 99025LG  25355.76927396  .00003664  00000+0  59721-3 0  9999",
        "tle_line2": "2 29982  99.4011 178.3595 0121668 260.6823 118.4068 14.66947952  4167"
      },
      "geometry": {
        "type": "Point",
        "coordinates": [
          -176.03356626969006,
          -28.443041985035414
        ]
      }
    }
  ]
}